NORAD_CAT_ID,OBJECT_NAME,OBJECT_TYPE,EPOCH,MEAN_MOTION,ECCENTRICITY,INCLINATION,RA_OF_ASC_NODE,ARG_OF_PERICENTER,MEAN_ANOMALY,BSTAR,MEAN_MOTION_DOT,MEAN_MOTION_DDOT,TLE_LINE0,TLE_LINE1,TLE_LINE2,SEMIMAJOR_AXIS,PERIOD,APOGEE,PERIGEE,DECAYED
56813.0,STARLINK-6056,PAYLOAD,2024-02-18 18:26:51,14.98334624,0.0002812,69.9989,75.0979,271.3032,88.7805,-5.4669e-05,-7.45e-06,0.0,0 STARLINK-6056,1 56813U 23078AY  24049.76865179 -.00000745  00000-0 -54669-4 0  9993,2 56813  69.9989  75.0979 0002812 271.3032  88.7805 14.98334624 40355,6950.179,96.107,573.998,570.089,0.0
56813.0,STARLINK-6056,PAYLOAD,2024-02-19 04:03:39,14.98329689,0.0002813,69.9987,74.088,270.154,89.9297,2.7241e-05,2.32e-06,0.0,0 STARLINK-6056,1 56813U 23078AY  24050.16921254  .00000232  00000-0  27241-4 0  9991,2 56813  69.9987  74.0880 0002813 270.1540  89.9297 14.98329689 40673,6950.194,96.107,574.014,570.104,0.0
56813.0,STARLINK-6056,PAYLOAD,2024-02-19 10:28:12,14.98326897,0.0002462,69.9988,73.4147,266.6998,93.3879,7.4391e-05,7.95e-06,0.0,0 STARLINK-6056,1 56813U 23078AY  24050.43625335  .00000795  00000-0  74391-4 0  9994,2 56813  69.9988  73.4147 0002462 266.6998  93.3879 14.98326897 40459,6950.202,96.107,573.779,570.356,0.0
56813.0,STARLINK-6056,PAYLOAD,2024-02-19 18:28:52,14.98335933,0.0002829,69.9989,72.573,270.1645,89.919,-0.00015225,-1.909e-05,0.0,0 STARLINK-6056,1 56813U 23078AY  24050.77005251 -.00001909  00000-0 -15225-3 0  9990,2 56813  69.9989  72.5730 0002829 270.1645  89.9190 14.98335933 40508,6950.175,96.107,574.006,570.073,0.0
56813.0,STARLINK-6056,PAYLOAD,2024-02-20 04:05:41,14.9832757,0.0002802,69.9987,71.5633,267.3201,92.7637,-7.2861e-05,-9.62e-06,0.0,0 STARLINK-6056,1 56813U 23078AY  24051.17061655 -.00000962  00000-0 -72861-4 0  9993,2 56813  69.9987  71.5633 0002802 267.3201  92.7637 14.98327570 40825,6950.2,96.107,574.013,570.118,0.0
56813.0,STARLINK-6056,PAYLOAD,2024-02-20 12:06:21,14.98327648,0.0002876,69.9985,70.7208,267.0682,93.0148,-5.0945e-05,-7.01e-06,0.0,0 STARLINK-6056,1 56813U 23078AY  24051.50441624 -.00000701  00000-0 -50945-4 0  9998,2 56813  69.9985  70.7208 0002876 267.0682  93.0148 14.98327648 40617,6950.2,96.107,574.064,570.066,0.0
56813.0,STARLINK-6056,PAYLOAD,2024-02-20 18:30:53,14.98329788,0.0003066,69.9985,70.0471,269.9419,90.1389,-3.5406e-05,-5.15e-06,0.0,0 STARLINK-6056,1 56813U 23078AY  24051.77145415 -.00000515  00000-0 -35406-4 0  9994,2 56813  69.9985  70.0471 0003066 269.9419  90.1389 14.98329788 40659,6950.194,96.107,574.189,569.928,0.0
56813.0,STARLINK-6056,PAYLOAD,2024-02-21 04:07:41,14.98330261,0.0002965,69.9984,69.0377,269.0688,91.0131,2.5855e-05,2.15e-06,0.0,0 STARLINK-6056,1 56813U 23078AY  24052.17201258  .00000215  00000-0  25855-4 0  9999,2 56813  69.9984  69.0377 0002965 269.0688  91.0131 14.98330261 40975,6950.192,96.107,574.118,569.996,0.0
56813.0,STARLINK-6056,PAYLOAD,2024-02-21 10:32:13,14.98334159,0.0002922,69.9984,68.3641,266.1483,93.9342,4.7819e-05,4.78e-06,0.0,0 STARLINK-6056,1 56813U 23078AY  24052.43904908  .00000478  00000-0  47819-4 0  9995,2 56813  69.9984  68.3641 0002922 266.1483  93.9342 14.98334159 40756,6950.18,96.107,574.076,570.014,0.0
56813.0,STARLINK-6056,PAYLOAD,2024-02-21 18:32:54,14.98331454,0.0003047,69.9983,67.522,267.0524,93.0286,9.2537e-06,1.7e-07,0.0,0 STARLINK-6056,1 56813U 23078AY  24052.77285088  .00000017  00000-0  92537-5 0  9990,2 56813  69.9983  67.5220 0003047 267.0524  93.0286 14.98331454 40803,6950.188,96.107,574.171,569.936,0.0
56813.0,STARLINK-6056,PAYLOAD,2024-02-22 04:09:43,14.98327429,0.0003,69.9981,66.5118,270.567,89.5145,-6.4348e-06,-1.7e-06,0.0,0 STARLINK-6056,1 56813U 23078AY  24053.17341468 -.00000170  00000-0 -64348-5 0  9991,2 56813  69.9981  66.5118 0003000 270.5670  89.5145 14.98327429 41123,6950.201,96.107,574.151,569.981,0.0
56813.0,STARLINK-6056,PAYLOAD,2024-02-22 10:34:14,14.98331164,0.0002641,69.999,65.838,260.9136,99.1724,0.00010592,1.171e-05,0.0,0 STARLINK-6056,1 56813U 23078AY  24053.44044955  .00001171  00000-0  10592-3 0  9992,2 56813  69.9990  65.8380 0002641 260.9136  99.1724 14.98331164 40902,6950.189,96.107,573.89,570.219,0.0
56813.0,STARLINK-6056,PAYLOAD,2024-02-22 18:34:55,14.98330012,0.0002633,69.9999,64.9972,273.6709,86.4148,7.105e-05,7.55e-06,0.0,0 STARLINK-6056,1 56813U 23078AY  24053.77425184  .00000755  00000-0  71050-4 0  9999,2 56813  69.9999  64.9972 0002633 273.6709  86.4148 14.98330012 40951,6950.193,96.107,573.888,570.228,0.0
56813.0,STARLINK-6056,PAYLOAD,2024-02-23 04:11:43,14.98328863,0.0003019,69.9994,63.9873,270.8681,89.2132,5.032e-05,5.07e-06,0.0,0 STARLINK-6056,1 56813U 23078AY  24054.17481113  .00000507  00000-0  50320-4 0  9990,2 56813  69.9994  63.9873 0003019 270.8681  89.2132 14.98328863 41273,6950.196,96.107,574.16,569.963,0.0
56813.0,STARLINK-6056,PAYLOAD,2024-02-23 10:36:17,14.98313871,0.0002811,69.9997,63.3147,260.2681,99.816,-0.00021543,-2.661e-05,0.0,0 STARLINK-6056,1 56813U 23078AY  24054.44186611 -.00002661  00000-0 -21543-3 0  9994,2 56813  69.9997  63.3147 0002811 260.2681  99.8160 14.98313871 41312,6950.243,96.108,574.061,570.154,0.0
56813.0,STARLINK-6056,PAYLOAD,2024-02-24 10:38:18,14.98318863,0.0002966,69.9989,60.7893,265.9367,94.1453,-0.00015462,-1.937e-05,0.0,0 STARLINK-6056,1 56813U 23078AY  24055.44326946 -.00001937  00000-0 -15462-3 0  9990,2 56813  69.9989  60.7893 0002966 265.9367  94.1453 14.98318863 41461,6950.227,96.108,574.154,570.031,0.0
56813.0,STARLINK-6056,PAYLOAD,2024-02-24 17:02:50,14.98320934,0.0002874,69.9992,60.1161,269.2665,90.8165,-0.00011481,-1.462e-05,0.0,0 STARLINK-6056,1 56813U 23078AY  24055.71030942 -.00001462  00000-0 -11481-3 0  9998,2 56813  69.9992  60.1161 0002874 269.2665  90.8165 14.98320934 41244,6950.221,96.108,574.083,570.088,0.0
56813.0,STARLINK-6056,PAYLOAD,2024-02-25 04:15:47,14.9832126,0.000308,69.9985,58.9369,268.7833,91.2973,-2.8991e-05,-4.39e-06,0.0,0 STARLINK-6056,1 56813U 23078AY  24056.17762895 -.00000439  00000-0 -28991-4 0  9996,2 56813  69.9985  58.9369 0003080 268.7833  91.2973 14.98321260 41573,6950.22,96.108,574.226,569.944,0.0
56813.0,STARLINK-6056,PAYLOAD,2024-02-25 10:40:19,14.98325406,0.0002927,69.999,58.2638,268.5366,91.5457,1.4338e-05,7.8e-07,0.0,0 STARLINK-6056,1 56813U 23078AY  24056.44466672  .00000078  00000-0  14338-4 0  9997,2 56813  69.9990  58.2638 0002927 268.5366  91.5457 14.98325406 41351,6950.207,96.107,574.106,570.038,0.0
56813.0,STARLINK-6056,PAYLOAD,2024-02-25 17:04:51,14.98329674,0.0002916,69.9992,57.5902,263.8038,96.2789,3.7651e-05,3.56e-06,0.0,0 STARLINK-6056,1 56813U 23078AY  24056.71170398  .00000356  00000-0  37651-4 0  9996,2 56813  69.9992  57.5902 0002916 263.8038  96.2789 14.98329674 41655,6950.194,96.107,574.086,570.032,0.0
56813.0,STARLINK-6056,PAYLOAD,2024-02-26 09:06:11,14.98331481,0.0003005,69.9987,55.9067,267.3436,92.7379,0.00023254,2.683e-05,0.0,0 STARLINK-6056,1 56813U 23078AY  24057.37929952  .00002683  00000-0  23254-3 0  9995,2 56813  69.9987  55.9067 0003005 267.3436  92.7379 14.98331481 41491,6950.188,96.107,574.142,569.965,0.0
56813.0,STARLINK-6056,PAYLOAD,2024-02-27 02:43:40,14.98336225,0.0002968,69.9991,54.0557,266.2187,93.8632,0.00011589,1.29e-05,0.0,0 STARLINK-6056,1 56813U 23078AY  24058.11365758  .00001290  00000-0  11589-3 0  9997,2 56813  69.9991  54.0557 0002968 266.2187  93.8632 14.98336225 41864,6950.174,96.107,574.101,569.976,0.0
56813.0,STARLINK-6056,PAYLOAD,2024-02-27 09:08:11,14.98339705,0.0003004,69.9991,53.3818,268.1513,91.9302,0.00011906,1.328e-05,0.0,0 STARLINK-6056,1 56813U 23078AY  24058.38069374  .00001328  00000-0  11906-3 0  9996,2 56813  69.9991  53.3818 0003004 268.1513  91.9302 14.98339705 41647,6950.163,96.106,574.116,569.94,0.0
56813.0,STARLINK-6056,PAYLOAD,2024-02-27 17:08:52,14.98330281,0.0003055,69.9988,52.5393,262.6267,97.4545,0.00014756,1.668e-05,0.0,0 STARLINK-6056,1 56813U 23078AY  24058.71449659  .00001668  00000-0  14756-3 0  9994,2 56813  69.9988  52.5393 0003055 262.6267  97.4545 14.98330281 41698,6950.192,96.107,574.18,569.934,0.0
56813.0,STARLINK-6056,PAYLOAD,2024-02-28 04:21:48,14.98337048,0.0002961,69.9989,51.361,268.2363,91.8457,-4.2777e-05,-6.03e-06,0.0,0 STARLINK-6056,1 56813U 23078AY  24059.18181483 -.00000603  00000-0 -42777-4 0  9999,2 56813  69.9989  51.3610 0002961 268.2363  91.8457 14.98337048 42028,6950.171,96.107,574.094,569.978,0.0
56813.0,STARLINK-6056,PAYLOAD,2024-02-28 09:10:12,14.98337094,0.0002904,69.999,50.8563,268.1323,91.9504,-2.254e-05,-3.62e-06,0.0,0 STARLINK-6056,1 56813U 23078AY  24059.38209325 -.00000362  00000-0 -22540-4 0  9995,2 56813  69.9990  50.8563 0002904 268.1323  91.9504 14.98337094 41791,6950.171,96.107,574.054,570.018,0.0
56813.0,STARLINK-6056,PAYLOAD,2024-02-28 17:10:53,14.98314625,0.0002794,69.9993,50.0144,282.3605,77.7242,0.00026503,3.069e-05,0.0,0 STARLINK-6056,1 56813U 23078AY  24059.71590108  .00003069  00000-0  26503-3 0  9991,2 56813  69.9993  50.0144 0002794 282.3605  77.7242 14.98314625 42101,6950.24,96.108,574.047,570.164,0.0
56813.0,STARLINK-6056,PAYLOAD,2024-02-29 04:23:49,14.983341,0.00028,69.9992,48.8361,266.7487,93.3352,-8.9623e-05,-1.162e-05,0.0,0 STARLINK-6056,1 56813U 23078AY  24060.18321351 -.00001162  00000-0 -89623-4 0  9993,2 56813  69.9992  48.8361 0002800 266.7487  93.3352 14.98334100 42171,6950.18,96.107,573.991,570.099,0.0
56813.0,STARLINK-6056,PAYLOAD,2024-02-29 09:12:13,14.9833342,0.0002855,69.9993,48.3319,268.1092,91.9741,-9.4131e-05,-1.216e-05,0.0,0 STARLINK-6056,1 56813U 23078AY  24060.38349361 -.00001216  00000-0 -94131-4 0  9996,2 56813  69.9993  48.3319 0002855 268.1092  91.9741 14.98333420 41942,6950.182,96.107,574.032,570.063,0.0
56813.0,STARLINK-6056,PAYLOAD,2024-02-29 22:01:18,14.98331282,0.0002899,69.9994,46.9852,271.5093,88.5734,6.7774e-06,-1.2e-07,0.0,0 STARLINK-6056,1 56813U 23078AY  24060.91757096 -.00000012  00000-0  67774-5 0  9999,2 56813  69.9994  46.9852 0002899 271.5093  88.5734 14.98331282 42024,6950.189,96.107,574.069,570.039,0.0
